DELTA 1 R/B(1)          
1 10062U 77048B   24125.42887242  .00000870  00000+0  29285-3 0  9999
2 10062  28.4162  38.0769 0732161 116.1267 251.6442 13.37766295283467
